start=new Date('2023-04-04T00:00:00.000Z').valueOf();
sats=[{"COUNTRY_CODE":"US","BSTAR":"0.00040763000000","TIME_SYSTEM":"UTC","REV_AT_EPOCH":"7709","INCLINATION":"53.2175","ECCENTRICITY":"0.00010700","TLE_LINE2":"2 49453  53.2175 347.0170 0001070  62.9318 297.1783 15.08855245 77092","OBJECT_TYPE":"PAYLOAD","SEMIMAJOR_AXIS":"6917.834","CENTER_NAME":"EARTH","PERIAPSIS":"538.959","ELEMENT_SET_NO":"999","REF_FRAME":"TEME","SITE":"AFETR","MEAN_MOTION_DDOT":"0.0000000000000","NORAD_CAT_ID":"49453","RCS_SIZE":"LARGE","GP_ID":"229422876","ARG_OF_PERICENTER":"62.9318","FILE":"3879321","EPOCH":"2023-04-03T17:04:09.276672","MEAN_MOTION_DOT":"0.00006208","CLASSIFICATION_TYPE":"U","PERIOD":"95.437","APOAPSIS":"540.439","MEAN_MOTION":"15.08855245","EPHEMERIS_TYPE":"0","DECAY_DATE":null,"MEAN_ELEMENT_THEORY":"SGP4","OBJECT_ID":"2021-104AX","RA_OF_ASC_NODE":"347.0170","MEAN_ANOMALY":"297.1783","LAUNCH_DATE":"2021-11-13","OBJECT_NAME":"STARLINK-3129","TLE_LINE1":"1 49453U 21104AX  23093.71121848  .00006208  00000-0  40763-3 0  9991"},{"RCS_SIZE":"LARGE","MEAN_MOTION_DOT":"0.00001408","EPOCH":"2023-04-03T16:57:27.839808","ARG_OF_PERICENTER":"82.0827","FILE":"3879321","GP_ID":"229423127","NORAD_CAT_ID":"49454","RA_OF_ASC_NODE":"346.9524","OBJECT_ID":"2021-104AY","MEAN_ELEMENT_THEORY":"SGP4","TLE_LINE1":"1 49454U 21104AY  23093.70657222  .00001408  00000-0  10649-3 0  9998","OBJECT_NAME":"STARLINK-3160","LAUNCH_DATE":"2021-11-13","MEAN_ANOMALY":"278.0309","CLASSIFICATION_TYPE":"U","PERIOD":"95.437","DECAY_DATE":null,"EPHEMERIS_TYPE":"0","MEAN_MOTION":"15.08844459","APOAPSIS":"540.606","INCLINATION":"53.2176","REV_AT_EPOCH":"7709","ECCENTRICITY":"0.00012640","COUNTRY_CODE":"US","TIME_SYSTEM":"UTC","BSTAR":"0.00010649000000","ELEMENT_SET_NO":"999","PERIAPSIS":"538.857","MEAN_MOTION_DDOT":"0.0000000000000","SITE":"AFETR","REF_FRAME":"TEME","CENTER_NAME":"EARTH","OBJECT_TYPE":"PAYLOAD","TLE_LINE2":"2 49454  53.2176 346.9524 0001264  82.0827 278.0309 15.08844459 77095","SEMIMAJOR_AXIS":"6917.867"},{"ECCENTRICITY":"0.00012590","REV_AT_EPOCH":"7712","INCLINATION":"53.2175","BSTAR":"0.00030504000000","TIME_SYSTEM":"UTC","COUNTRY_CODE":"US","REF_FRAME":"TEME","SITE":"AFETR","MEAN_MOTION_DDOT":"0.0000000000000","PERIAPSIS":"538.860","ELEMENT_SET_NO":"999","TLE_LINE2":"2 49455  53.2175 346.1217 0001259  75.7526 284.3606 15.08844865 77120","SEMIMAJOR_AXIS":"6917.866","OBJECT_TYPE":"PAYLOAD","CENTER_NAME":"EARTH","GP_ID":"229423872","FILE":"3879321","ARG_OF_PERICENTER":"75.7526","EPOCH":"2023-04-03T21:22:25.505472","MEAN_MOTION_DOT":"0.00004571","RCS_SIZE":"LARGE","NORAD_CAT_ID":"49455","LAUNCH_DATE":"2021-11-13","MEAN_ANOMALY":"284.3606","OBJECT_NAME":"STARLINK-3145","TLE_LINE1":"1 49455U 21104AZ  23093.89057298  .00004571  00000-0  30504-3 0  9992","MEAN_ELEMENT_THEORY":"SGP4","OBJECT_ID":"2021-104AZ","RA_OF_ASC_NODE":"346.1217","APOAPSIS":"540.601","MEAN_MOTION":"15.08844865","EPHEMERIS_TYPE":"0","DECAY_DATE":null,"PERIOD":"95.437","CLASSIFICATION_TYPE":"U"},{"INCLINATION":"53.2184","REV_AT_EPOCH":"7709","ECCENTRICITY":"0.00009650","COUNTRY_CODE":"US","TIME_SYSTEM":"UTC","BSTAR":"0.00015508000000","ELEMENT_SET_NO":"999","PERIAPSIS":"539.077","MEAN_MOTION_DDOT":"0.0000000000000","SITE":"AFETR","REF_FRAME":"TEME","CENTER_NAME":"EARTH","SEMIMAJOR_AXIS":"6917.879","TLE_LINE2":"2 49456  53.2184 347.0111 0000965  92.6317 267.4786 15.08840316 77097","OBJECT_TYPE":"PAYLOAD","RCS_SIZE":"LARGE","MEAN_MOTION_DOT":"0.00002181","EPOCH":"2023-04-03T16:53:32.844768","ARG_OF_PERICENTER":"92.6317","FILE":"3879321","GP_ID":"229422626","NORAD_CAT_ID":"49456","RA_OF_ASC_NODE":"347.0111","OBJECT_ID":"2021-104BA","MEAN_ELEMENT_THEORY":"SGP4","TLE_LINE1":"1 49456U 21104BA  23093.70385237  .00002181  00000-0  15508-3 0  9992","OBJECT_NAME":"STARLINK-3124","LAUNCH_DATE":"2021-11-13","MEAN_ANOMALY":"267.4786","PERIOD":"95.438","CLASSIFICATION_TYPE":"U","DECAY_DATE":null,"MEAN_MOTION":"15.08840316","EPHEMERIS_TYPE":"0","APOAPSIS":"540.412"},{"PERIOD":"95.438","CLASSIFICATION_TYPE":"U","MEAN_MOTION":"15.08838422","EPHEMERIS_TYPE":"0","APOAPSIS":"540.679","DECAY_DATE":null,"MEAN_ELEMENT_THEORY":"SGP4","RA_OF_ASC_NODE":"346.1409","OBJECT_ID":"2021-104BB","MEAN_ANOMALY":"281.5252","LAUNCH_DATE":"2021-11-13","TLE_LINE1":"1 49457U 21104BB  23093.88689292  .00001302  00000-0  99874-4 0  9993","OBJECT_NAME":"STARLINK-3132","NORAD_CAT_ID":"49457","RCS_SIZE":"LARGE","FILE":"3879321","ARG_OF_PERICENTER":"78.5891","GP_ID":"229422376","MEAN_MOTION_DOT":"0.00001302","EPOCH":"2023-04-03T21:17:07.548288","OBJECT_TYPE":"PAYLOAD","TLE_LINE2":"2 49457  53.2175 346.1409 0001343  78.5891 281.5252 15.08838422 77123","SEMIMAJOR_AXIS":"6917.885","CENTER_NAME":"EARTH","PERIAPSIS":"538.821","ELEMENT_SET_NO":"999","REF_FRAME":"TEME","MEAN_MOTION_DDOT":"0.0000000000000","SITE":"AFETR","COUNTRY_CODE":"US","BSTAR":"0.00009987400000","TIME_SYSTEM":"UTC","REV_AT_EPOCH":"7712","INCLINATION":"53.2175","ECCENTRICITY":"0.00013430"},{"PERIOD":"95.437","CLASSIFICATION_TYPE":"U","DECAY_DATE":null,"APOAPSIS":"540.800","MEAN_MOTION":"15.08844145","EPHEMERIS_TYPE":"0","OBJECT_ID":"2021-104BC","RA_OF_ASC_NODE":"346.1041","MEAN_ELEMENT_THEORY":"SGP4","OBJECT_NAME":"STARLINK-3156","TLE_LINE1":"1 49458U 21104BC  23093.89425472  .00007388  00000-0  48176-3 0  9991","LAUNCH_DATE":"2021-11-13","MEAN_ANOMALY":"271.7900","NORAD_CAT_ID":"49458","RCS_SIZE":"LARGE","EPOCH":"2023-04-03T21:27:43.607808","MEAN_MOTION_DOT":"0.00007388","GP_ID":"229423628","ARG_OF_PERICENTER":"88.3269","FILE":"3879321","CENTER_NAME":"EARTH","TLE_LINE2":"2 49458  53.2182 346.1041 0001543  88.3269 271.7900 15.08844145 77124","OBJECT_TYPE":"PAYLOAD","SEMIMAJOR_AXIS":"6917.868","ELEMENT_SET_NO":"999","PERIAPSIS":"538.665","SITE":"AFETR","MEAN_MOTION_DDOT":"0.0000000000000","REF_FRAME":"TEME","COUNTRY_CODE":"US","TIME_SYSTEM":"UTC","BSTAR":"0.00048176000000","INCLINATION":"53.2182","REV_AT_EPOCH":"7712","ECCENTRICITY":"0.00015430"},{"PERIAPSIS":"539.020","ELEMENT_SET_NO":"999","REF_FRAME":"TEME","SITE":"AFETR","MEAN_MOTION_DDOT":"0.0000000000000","TLE_LINE2":"2 49459  53.2160 346.1557 0001033 100.4767 259.6342 15.08843436 78191","OBJECT_TYPE":"PAYLOAD","SEMIMAJOR_AXIS":"6917.870","CENTER_NAME":"EARTH","REV_AT_EPOCH":"7819","INCLINATION":"53.2160","ECCENTRICITY":"0.00010330","COUNTRY_CODE":"US","BSTAR":"0.00016723000000","TIME_SYSTEM":"UTC","MEAN_ELEMENT_THEORY":"SGP4","OBJECT_ID":"2021-104BD","RA_OF_ASC_NODE":"346.1557","LAUNCH_DATE":"2021-11-13","MEAN_ANOMALY":"259.6342","OBJECT_NAME":"STARLINK-3141","TLE_LINE1":"1 49459U 21104BD  23093.88320851  .00002375  00000-0  16723-3 0  9990","CLASSIFICATION_TYPE":"U","PERIOD":"95.437","APOAPSIS":"540.450","EPHEMERIS_TYPE":"0","MEAN_MOTION":"15.08843436","DECAY_DATE":null,"RCS_SIZE":"LARGE","GP_ID":"229396253","ARG_OF_PERICENTER":"100.4767","FILE":"3879095","EPOCH":"2023-04-03T21:11:49.215264","MEAN_MOTION_DOT":"0.00002375","NORAD_CAT_ID":"49459"},{"TLE_LINE2":"2 49460  53.2172 346.1733 0000925  72.1500 287.9593 15.08841262 77119","SEMIMAJOR_AXIS":"6917.877","OBJECT_TYPE":"PAYLOAD","CENTER_NAME":"EARTH","REF_FRAME":"TEME","MEAN_MOTION_DDOT":"0.0000000000000","SITE":"AFETR","PERIAPSIS":"539.102","ELEMENT_SET_NO":"999","BSTAR":"0.00017341000000","TIME_SYSTEM":"UTC","COUNTRY_CODE":"US","ECCENTRICITY":"0.00009250","REV_AT_EPOCH":"7711","INCLINATION":"53.2172","MEAN_MOTION":"15.08841262","EPHEMERIS_TYPE":"0","APOAPSIS":"540.381","DECAY_DATE":null,"PERIOD":"95.437","CLASSIFICATION_TYPE":"U","MEAN_ANOMALY":"287.9593","LAUNCH_DATE":"2021-11-13","TLE_LINE1":"1 49460U 21104BE  23093.87953026  .00002473  00000-0  17341-3 0  9993","OBJECT_NAME":"STARLINK-3140","MEAN_ELEMENT_THEORY":"SGP4","RA_OF_ASC_NODE":"346.1733","OBJECT_ID":"2021-104BE","NORAD_CAT_ID":"49460","FILE":"3879321","ARG_OF_PERICENTER":"72.1500","GP_ID":"229422126","MEAN_MOTION_DOT":"0.00002473","EPOCH":"2023-04-03T21:06:31.414464","RCS_SIZE":"LARGE"},{"REV_AT_EPOCH":"7387","INCLINATION":"53.2149","ECCENTRICITY":"0.00013400","COUNTRY_CODE":"US","BSTAR":"0.00011536000000","TIME_SYSTEM":"UTC","PERIAPSIS":"538.791","ELEMENT_SET_NO":"999","REF_FRAME":"TEME","MEAN_MOTION_DDOT":"0.0000000000000","SITE":"AFETR","SEMIMAJOR_AXIS":"6917.853","TLE_LINE2":"2 49724  53.2149 276.2567 0001340  96.1886 263.9258 15.08848942 73872","OBJECT_TYPE":"PAYLOAD","CENTER_NAME":"EARTH","RCS_SIZE":"LARGE","ARG_OF_PERICENTER":"96.1886","FILE":"3879321","GP_ID":"229422636","MEAN_MOTION_DOT":"0.00001549","EPOCH":"2023-04-03T20:40:04.700064","NORAD_CAT_ID":"49724","MEAN_ELEMENT_THEORY":"SGP4","RA_OF_ASC_NODE":"276.2567","OBJECT_ID":"2021-115A","LAUNCH_DATE":"2021-12-02","MEAN_ANOMALY":"263.9258","TLE_LINE1":"1 49724U 21115A   23093.86116551  .00001549  00000-0  11536-3 0  9994","OBJECT_NAME":"STARLINK-3219","PERIOD":"95.437","CLASSIFICATION_TYPE":"U","EPHEMERIS_TYPE":"0","MEAN_MOTION":"15.08848942","APOAPSIS":"540.645","DECAY_DATE":null},{"ELEMENT_SET_NO":"999","PERIAPSIS":"538.742","SITE":"AFETR","MEAN_MOTION_DDOT":"0.0000000000000","REF_FRAME":"TEME","CENTER_NAME":"EARTH","TLE_LINE2":"2 49725  53.2151 276.7608 0001369  78.2481 281.8665 15.08858521 73864","OBJECT_TYPE":"PAYLOAD","SEMIMAJOR_AXIS":"6917.824","INCLINATION":"53.2151","REV_AT_EPOCH":"7386","ECCENTRICITY":"0.00013690","COUNTRY_CODE":"US","TIME_SYSTEM":"UTC","BSTAR":"0.00046810000000","OBJECT_ID":"2021-115B","RA_OF_ASC_NODE":"276.7608","MEAN_ELEMENT_THEORY":"SGP4","OBJECT_NAME":"STARLINK-3218","TLE_LINE1":"1 49725U 21115B   23093.77189156  .00007173  00000-0  46810-3 0  9998","MEAN_ANOMALY":"281.8665","LAUNCH_DATE":"2021-12-02","CLASSIFICATION_TYPE":"U","PERIOD":"95.436","DECAY_DATE":null,"APOAPSIS":"540.636","MEAN_MOTION":"15.08858521","EPHEMERIS_TYPE":"0","RCS_SIZE":"LARGE","EPOCH":"2023-04-03T18:31:31.430784","MEAN_MOTION_DOT":"0.00007173","GP_ID":"229422386","ARG_OF_PERICENTER":"78.2481","FILE":"3879321","NORAD_CAT_ID":"49725"}];
